[{"OBJECT_NAME":"KUIPER-00030","OBJECT_ID":"2025-088V","EPOCH":"2026-03-09T12:13:07.778784","MEAN_MOTION":14.79975354,"ECCENTRICITY":0.00108768,"INCLINATION":51.9,"RA_OF_ASC_NODE":111.3437,"ARG_OF_PERICENTER":69.9838,"MEAN_ANOMALY":290.2294,"EPHEMERIS_TYPE":0,"CLASSIFICATION_TYPE":"U","NORAD_CAT_ID":63743,"ELEMENT_SET_NO":999,"REV_AT_EPOCH":4760,"BSTAR":0.00066192233,"MEAN_MOTION_DOT":4.835e-5,"MEAN_MOTION_DDOT":0},{"OBJECT_NAME":"DUMMY SAT","OBJECT_ID":"2014-037E","EPOCH":"2026-03-09T21:48:55.254240","MEAN_MOTION":14.82959019,"ECCENTRICITY":0.00042928,"INCLINATION":98.3624,"RA_OF_ASC_NODE":15.0347,"ARG_OF_PERICENTER":271.3917,"MEAN_ANOMALY":88.6803,"EPHEMERIS_TYPE":0,"CLASSIFICATION_TYPE":"U","NORAD_CAT_ID":40073,"ELEMENT_SET_NO":999,"REV_AT_EPOCH":63072,"BSTAR":8.5195748e-5,"MEAN_MOTION_DOT":6.33e-6,"MEAN_MOTION_DDOT":0}]
